NORAD_CAT_ID,OBJECT_NAME,OBJECT_TYPE,EPOCH,MEAN_MOTION,ECCENTRICITY,INCLINATION,RA_OF_ASC_NODE,ARG_OF_PERICENTER,MEAN_ANOMALY,BSTAR,MEAN_MOTION_DOT,MEAN_MOTION_DDOT,TLE_LINE0,TLE_LINE1,TLE_LINE2,SEMIMAJOR_AXIS,PERIOD,APOGEE,PERIGEE,DECAYED
52555.0,STARLINK-3949,PAYLOAD,2024-04-20 00:31:36,15.10706727,0.0001466,53.2165,340.585,183.5253,176.573,0.0049771,0.00084083,0.0,0 STARLINK-3949,1 52555U 22051Y   24111.02194779  .00084083  00000-0  49771-2 0  9993,2 52555  53.2165 340.5850 0001466 183.5253 176.5730 15.10706727107558,6912.18,95.32,535.059,533.032,0.0
52555.0,STARLINK-3949,PAYLOAD,2024-04-20 14:49:00,15.1075453,0.000118,53.2169,337.9026,184.0764,176.022,0.0024408,0.00040889,0.0,0 STARLINK-3949,1 52555U 22051Y   24111.61736429  .00040889  00000-0  24408-2 0  9998,2 52555  53.2169 337.9026 0001180 184.0764 176.0220 15.10754530107579,6912.035,95.317,534.715,533.084,0.0
52555.0,STARLINK-3949,PAYLOAD,2024-04-20 19:34:47,15.10778425,0.0001151,53.217,337.0074,184.9521,175.1461,0.0023464,0.00039314,0.0,0 STARLINK-3949,1 52555U 22051Y   24111.81583015  .00039314  00000-0  23464-2 0  9993,2 52555  53.2170 337.0074 0001151 184.9521 175.1461 15.10778425107670,6911.962,95.315,534.622,533.031,0.0
52555.0,STARLINK-3949,PAYLOAD,2024-04-21 14:37:55,15.1086511,9.26e-05,53.2171,333.4341,192.8341,167.2629,0.0033975,0.00057339,0.0,0 STARLINK-3949,1 52555U 22051Y   24112.60966688  .00057339  00000-0  33975-2 0  9997,2 52555  53.2171 333.4341 0000926 192.8341 167.2629 15.10865110107727,6911.697,95.31,534.202,532.922,0.0
52555.0,STARLINK-3949,PAYLOAD,2024-04-21 20:58:56,15.10894729,9.42e-05,53.2172,332.2416,195.348,164.7485,0.0034001,0.00057431,0.0,0 STARLINK-3949,1 52555U 22051Y   24112.87426866  .00057431  00000-0  34001-2 0  9999,2 52555  53.2172 332.2416 0000942 195.3480 164.7485 15.10894729107830,6911.607,95.308,534.123,532.821,0.0
52555.0,STARLINK-3949,PAYLOAD,2024-04-22 00:09:27,15.10909704,9.51e-05,53.2172,331.6458,196.0508,164.0455,0.0033114,0.00055937,0.0,0 STARLINK-3949,1 52555U 22051Y   24113.00656764  .00055937  00000-0  33114-2 0  9990,2 52555  53.2172 331.6458 0000951 196.0508 164.0455 15.10909704107782,6911.561,95.307,534.084,532.769,0.0
52555.0,STARLINK-3949,PAYLOAD,2024-04-22 20:47:44,15.1099183,0.0001121,53.2172,327.7722,204.1849,155.9092,0.002618,0.0004419,0.0,0 STARLINK-3949,1 52555U 22051Y   24113.86648198  .00044190  00000-0  26180-2 0  9990,2 52555  53.2172 327.7722 0001121 204.1849 155.9092 15.10991830107980,6911.311,95.302,533.951,532.401,0.0
52555.0,STARLINK-3949,PAYLOAD,2024-04-23 20:36:25,15.11087688,0.0001243,53.2175,323.303,208.5547,151.5378,0.0026817,0.00045401,0.0,0 STARLINK-3949,1 52555U 22051Y   24114.85863133  .00045401  00000-0  26817-2 0  9991,2 52555  53.2175 323.3030 0001243 208.5547 151.5378 15.11087688108062,6911.019,95.296,533.743,532.025,0.0
52555.0,STARLINK-3949,PAYLOAD,2024-04-23 23:46:54,15.11102835,0.0001255,53.2169,322.7057,211.5036,148.5883,0.0027675,0.00046892,0.0,0 STARLINK-3949,1 52555U 22051Y   24114.99091260  .00046892  00000-0  27675-2 0  9998,2 52555  53.2169 322.7057 0001255 211.5036 148.5883 15.11102835108156,6910.972,95.295,533.705,531.97,0.0
52555.0,STARLINK-3949,PAYLOAD,2024-04-24 20:25:01,15.11184833,0.0001175,53.2176,318.8296,224.1447,135.9452,0.002681,0.00045512,0.0,0 STARLINK-3949,1 52555U 22051Y   24115.85071638  .00045512  00000-0  26810-2 0  9999,2 52555  53.2176 318.8296 0001175 224.1447 135.9452 15.11184833108219,6910.722,95.289,533.399,531.775,0.0
52555.0,STARLINK-3949,PAYLOAD,2024-04-25 20:13:32,15.11271519,0.0001208,53.2177,314.3593,238.2196,121.868,0.0025232,0.00042904,0.0,0 STARLINK-3949,1 52555U 22051Y   24116.84274278  .00042904  00000-0  25232-2 0  9993,2 52555  53.2177 314.3593 0001208 238.2196 121.8680 15.11271519108434,6910.458,95.284,533.158,531.488,0.0
52555.0,STARLINK-3949,PAYLOAD,2024-04-26 05:44:56,15.11305431,0.0001115,53.218,312.5719,250.3735,109.7138,0.0024712,0.00042048,0.0,0 STARLINK-3949,1 52555U 22051Y   24117.23953823  .00042048  00000-0  24712-2 0  9998,2 52555  53.2180 312.5719 0001115 250.3735 109.7138 15.11305431108422,6910.355,95.282,532.99,531.449,0.0
52555.0,STARLINK-3949,PAYLOAD,2024-04-26 16:51:32,15.11344678,0.0001277,53.2178,310.4891,242.8287,117.2576,0.0025754,0.00043893,0.0,0 STARLINK-3949,1 52555U 22051Y   24117.70245518  .00043893  00000-0  25754-2 0  9991,2 52555  53.2178 310.4891 0001277 242.8287 117.2576 15.11344678108497,6910.235,95.279,532.983,531.218,0.0
52555.0,STARLINK-3949,PAYLOAD,2024-04-27 05:33:20,15.11393944,0.0001269,53.2176,308.105,247.5866,112.4993,0.0026081,0.00044519,0.0,0 STARLINK-3949,1 52555U 22051Y   24118.23148667  .00044519  00000-0  26081-2 0  9997,2 52555  53.2176 308.1050 0001269 247.5866 112.4993 15.11393944108649,6910.085,95.276,532.827,531.073,0.0
52555.0,STARLINK-3949,PAYLOAD,2024-04-27 21:25:33,15.11445259,0.0001301,53.2166,305.1245,254.589,105.4959,0.0022303,0.00038047,0.0,0 STARLINK-3949,1 52555U 22051Y   24118.89275391  .00038047  00000-0  22303-2 0  9996,2 52555  53.2166 305.1245 0001301 254.5890 105.4959 15.11445259108677,6909.929,95.273,532.693,530.895,0.0
52555.0,STARLINK-3949,PAYLOAD,2024-04-28 05:21:40,15.11468191,0.00013,53.2167,303.6339,256.5423,103.5425,0.0021321,0.00036374,0.0,0 STARLINK-3949,1 52555U 22051Y   24119.22337996  .00036374  00000-0  21321-2 0  9994,2 52555  53.2167 303.6339 0001300 256.5423 103.5425 15.11468191108798,6909.859,95.272,532.622,530.825,0.0
52555.0,STARLINK-3949,PAYLOAD,2024-04-28 11:42:32,15.11486951,0.0001332,53.2159,302.442,258.2207,101.8637,0.0021278,0.00036318,0.0,0 STARLINK-3949,1 52555U 22051Y   24119.48787711  .00036318  00000-0  21278-2 0  9995,2 52555  53.2159 302.4420 0001332 258.2207 101.8637 15.11486951108768,6909.802,95.27,532.587,530.746,0.0
52555.0,STARLINK-3949,PAYLOAD,2024-04-28 21:13:51,15.11502641,0.0001343,53.2164,300.6535,261.9089,98.1752,0.0015722,0.00026733,0.0,0 STARLINK-3949,1 52555U 22051Y   24119.88461883  .00026733  00000-0  15722-2 0  9995,2 52555  53.2164 300.6535 0001343 261.9089  98.1752 15.11502641108820,6909.754,95.269,532.547,530.691,0.0
52555.0,STARLINK-3949,PAYLOAD,2024-04-29 05:09:56,15.11519102,0.0001368,53.2162,299.1634,264.0867,95.997,0.0013534,0.0002297,0.0,0 STARLINK-3949,1 52555U 22051Y   24120.21523213  .00022970  00000-0  13534-2 0  9998,2 52555  53.2162 299.1634 0001368 264.0867  95.9970 15.11519102108945,6909.704,95.268,532.514,530.623,0.0
52555.0,STARLINK-3949,PAYLOAD,2024-04-29 11:30:47,15.11531512,0.000139,53.2161,297.9712,266.3687,93.7147,0.0012938,0.0002195,0.0,0 STARLINK-3949,1 52555U 22051Y   24120.47972067  .00021950  00000-0  12938-2 0  9995,2 52555  53.2161 297.9712 0001390 266.3687  93.7147 15.11531512108915,6909.666,95.268,532.491,530.57,0.0
52555.0,STARLINK-3949,PAYLOAD,2024-04-29 19:26:52,15.11548885,0.0001374,53.2163,296.481,270.5898,89.4938,0.0013298,0.00022582,0.0,0 STARLINK-3949,1 52555U 22051Y   24120.81032738  .00022582  00000-0  13298-2 0  9997,2 52555  53.2163 296.4810 0001374 270.5898  89.4938 15.11548885108969,6909.613,95.267,532.427,530.528,0.0
52555.0,STARLINK-3949,PAYLOAD,2024-04-30 04:58:09,15.11569565,0.0001409,53.2164,294.6929,276.011,84.0722,0.001366,0.0002322,0.0,0 STARLINK-3949,1 52555U 22051Y   24121.20705099  .00023220  00000-0  13660-2 0  9991,2 52555  53.2164 294.6929 0001409 276.0110  84.0722 15.11569565109026,6909.55,95.265,532.388,530.441,0.0
52555.0,STARLINK-3949,PAYLOAD,2024-04-30 17:39:51,15.11593723,0.0001432,53.2169,292.3091,282.8475,77.2359,0.0014945,0.00025458,0.0,0 STARLINK-3949,1 52555U 22051Y   24121.73600945  .00025458  00000-0  14945-2 0  9995,2 52555  53.2169 292.3091 0001432 282.8475  77.2359 15.11593723109170,6909.476,95.264,532.331,530.352,0.0
52555.0,STARLINK-3949,PAYLOAD,2024-05-01 04:46:19,15.11619576,0.0001487,53.217,290.2226,287.6795,72.4036,0.0017975,0.00030724,0.0,0 STARLINK-3949,1 52555U 22051Y   24122.19884029  .00030724  00000-0  17975-2 0  9991,2 52555  53.2170 290.2226 0001487 287.6795  72.4036 15.11619576109171,6909.397,95.262,532.29,530.235,0.0
52555.0,STARLINK-3949,PAYLOAD,2024-05-01 17:28:00,15.11644319,0.0001522,53.217,287.838,293.5646,66.5187,0.0015865,0.00027088,0.0,0 STARLINK-3949,1 52555U 22051Y   24122.72778072  .00027088  00000-0  15865-2 0  9995,2 52555  53.2170 287.8380 0001522 293.5646  66.5187 15.11644319109258,6909.322,95.261,532.239,530.135,0.0
52555.0,STARLINK-3949,PAYLOAD,2024-05-02 04:34:27,15.1166871,0.0001564,53.2172,285.7507,295.8016,64.2816,0.0015639,0.00026714,0.0,0 STARLINK-3949,1 52555U 22051Y   24123.19059544  .00026714  00000-0  15639-2 0  9997,2 52555  53.2172 285.7507 0001564 295.8016  64.2816 15.11668710109390,6909.248,95.259,532.193,530.032,0.0
52555.0,STARLINK-3949,PAYLOAD,2024-05-02 14:05:41,15.11687387,0.0001609,53.2172,283.9623,298.8692,61.214,0.0015189,0.00025948,0.0,0 STARLINK-3949,1 52555U 22051Y   24123.58728874  .00025948  00000-0  15189-2 0  9997,2 52555  53.2172 283.9623 0001609 298.8692  61.2140 15.11687387109389,6909.191,95.258,532.167,529.944,0.0
52555.0,STARLINK-3949,PAYLOAD,2024-05-03 13:53:44,15.11748698,0.0001671,53.2169,279.4898,302.3774,57.7058,0.0013354,0.00022806,0.0,0 STARLINK-3949,1 52555U 22051Y   24124.57899076  .00022806  00000-0  13354-2 0  9992,2 52555  53.2169 279.4898 0001671 302.3774  57.7058 15.11748698109606,6909.004,95.254,532.023,529.714,0.0
52555.0,STARLINK-3949,PAYLOAD,2024-05-03 17:04:08,15.1175691,0.0001694,53.2168,278.8935,303.4975,56.5856,0.0013931,0.00023814,0.0,0 STARLINK-3949,1 52555U 22051Y   24124.71121490  .00023814  00000-0  13931-2 0  9997,2 52555  53.2168 278.8935 0001694 303.4975  56.5856 15.11756910109553,6908.979,95.253,532.014,529.674,0.0
52555.0,STARLINK-3949,PAYLOAD,2024-05-04 15:16:56,15.11805076,0.0001869,53.2167,274.7193,308.0461,52.0363,0.0014049,0.00024051,0.0,0 STARLINK-3949,1 52555U 22051Y   24125.63676627  .00024051  00000-0  14049-2 0  9991,2 52555  53.2167 274.7193 0001869 308.0461  52.0363 15.11805076109763,6908.832,95.25,531.988,529.406,0.0
